NORAD_CAT_ID,OBJECT_NAME,OBJECT_TYPE,EPOCH,MEAN_MOTION,ECCENTRICITY,INCLINATION,RA_OF_ASC_NODE,ARG_OF_PERICENTER,MEAN_ANOMALY,BSTAR,MEAN_MOTION_DOT,MEAN_MOTION_DDOT,TLE_LINE0,TLE_LINE1,TLE_LINE2,SEMIMAJOR_AXIS,PERIOD,APOGEE,PERIGEE,DECAYED
53721.0,STARLINK-4707,PAYLOAD,2022-10-04 22:00:00,15.73188782,0.0001496999999999,53.2144,125.5486,130.6322,71.1037,-0.00016422,-0.00023592,0.0,0 STARLINK-4707,1 53721U 22107X   22277.91667824 -.00023592  00000-0 -16422-3 0  9994,2 53721  53.2144 125.5486 0001497 130.6322  71.1037 15.73188782  4809,6727.927,91.534,350.7990000000001,348.785,0.0
53721.0,STARLINK-4707,PAYLOAD,2022-10-05 14:00:01,15.7314135,0.0001651,53.2146,122.2473,137.6024,241.9,0.0004609,0.000644,0.0,0 STARLINK-4707,1 53721U 22107X   22278.58335648  .00064400  00000-0  46090-3 0  9999,2 53721  53.2146 122.2473 0001651 137.6024 241.9000 15.73141350  4907,6728.062,91.537,351.038,348.81699999999995,0.0
53721.0,STARLINK-4707,PAYLOAD,2022-10-05 22:00:00,15.73142844,0.0001329,53.2146,120.6,135.91,332.4253,0.00037905,0.00052782,0.0,0 STARLINK-4707,1 53721U 22107X   22278.91667824  .00052782  00000-0  37905-3 0  9995,2 53721  53.2146 120.6000 0001329 135.9100 332.4253 15.73142844  1309,6728.058000000001,91.537,350.81699999999995,349.029,0.0
53721.0,STARLINK-4707,PAYLOAD,2022-10-06 14:00:01,15.73207903,0.0001506999999999,53.2142,117.2991,139.1393,147.0143,0.00026275,0.00036428,0.0,0 STARLINK-4707,1 53721U 22107X   22279.58334491  .00036428  00000-0  26275-3 0  9997,2 53721  53.2142 117.2991 0001507 139.1393 147.0143 15.73207903  1300,6727.873000000001,91.533,350.75199999999984,348.724,0.0
53721.0,STARLINK-4707,PAYLOAD,2022-10-06 22:42:55,15.73189675,0.0001393,53.214,115.5042,125.6079,58.3474,0.00059015,0.00082989,0.0,0 STARLINK-4707,1 53721U 22107X   22279.94646991  .00082989  00000-0  59015-3 0  9999,2 53721  53.2140 115.5042 0001393 125.6079  58.3474 15.73189675  1306,6727.925,91.534,350.727,348.852,0.0
53721.0,STARLINK-4707,PAYLOAD,2022-10-07 00:00:00,15.73194811,0.0001401,53.2138,115.2393,125.7152,1.6516,0.00057834,0.00081318,0.0,0 STARLINK-4707,1 53721U 22107X   22280.00001157  .00081318  00000-0  57834-3 0  9999,2 53721  53.2138 115.2393 0001401 125.7152   1.6516 15.73194811  5133,6727.91,91.533,350.718,348.832,0.0
53721.0,STARLINK-4707,PAYLOAD,2022-10-07 14:00:01,15.73217977,0.0001546,53.2141,112.35,133.4963,59.5461,-9.4309e-05,-0.00013845,0.0,0 STARLINK-4707,1 53721U 22107X   22280.58334491 -.00013845  00000-0 -94309-4 0  9993,2 53721  53.2141 112.3500 0001546 133.4963  59.5461 15.73217977  1306,6727.844,91.532,350.749,348.6690000000001,0.0
53721.0,STARLINK-4707,PAYLOAD,2022-10-07 22:00:00,15.73172487,0.0001262999999999,53.214,110.7023,124.2208,157.7702,-2.3665e-05,-3.935e-05,0.0,0 STARLINK-4707,1 53721U 22107X   22280.91667824 -.00003935  00000-0 -23665-4 0  9995,2 53721  53.2140 110.7023 0001263 124.2208 157.7702 15.73172487  1308,6727.974,91.535,350.68800000000016,348.98900000000015,0.0
53721.0,STARLINK-4707,PAYLOAD,2022-10-08 06:00:00,15.73194195,0.000148,53.2172,109.0495,121.5185,249.319,0.00012533,0.0001699999999999,0.0,0 STARLINK-4707,1 53721U 22107X   22281.25001157  .00017000  00000-0  12533-3 0  9991,2 53721  53.2172 109.0495 0001480 121.5185 249.3190 15.73194195  5327,6727.9119999999975,91.534,350.772,348.781,0.0
53721.0,STARLINK-4707,PAYLOAD,2022-10-08 14:00:01,15.73219561,0.0001324,53.2136,107.4012,131.9809,327.8544,-9.5529e-05,-0.00014016,0.0,0 STARLINK-4707,1 53721U 22107X   22281.58334491 -.00014016  00000-0 -95529-4 0  9990,2 53721  53.2136 107.4012 0001324 131.9809 327.8544 15.73219561  1303,6727.839,91.532,350.595,348.814,0.0
53721.0,STARLINK-4707,PAYLOAD,2022-10-08 22:00:00,15.73155555,9.49e-05,53.2134,105.7534,126.4877,62.3137,0.000893,0.00126366,0.0,0 STARLINK-4707,1 53721U 22107X   22281.91667824  .00126366  00000-0  89300-3 0  9995,2 53721  53.2134 105.7534 0000949 126.4877  62.3137 15.73155555  1308,6728.022,91.536,350.525,349.24800000000016,0.0
53721.0,STARLINK-4707,PAYLOAD,2022-10-09 06:00:00,15.73269023,0.0001051,53.2133,104.1019,132.3014,145.4248,-0.0003191999999999,-0.00045308,0.0,0 STARLINK-4707,1 53721U 22107X   22282.25001157 -.00045308  00000-0 -31920-3 0  9997,2 53721  53.2133 104.1019 0001051 132.3014 145.4248 15.73269023  5487,6727.698,91.529,350.27,348.856,0.0
53721.0,STARLINK-4707,PAYLOAD,2022-10-09 14:00:01,15.73288774,0.0001177999999999,53.2136,102.4519,126.4508,240.2735,-0.00033631,-0.00047731,0.0,0 STARLINK-4707,1 53721U 22107X   22282.58334491 -.00047731  00000-0 -33631-3 0  9996,2 53721  53.2136 102.4519 0001178 126.4508 240.2735 15.73288774  1304,6727.642,91.528,350.3,348.715,0.0
53721.0,STARLINK-4707,PAYLOAD,2022-10-09 22:00:00,15.73237509,0.0001007,53.2137,100.8039,111.9514,343.7951,-0.00050948,-0.00071628,0.0,0 STARLINK-4707,1 53721U 22107X   22282.91667824 -.00071628  00000-0 -50948-3 0  9994,2 53721  53.2137 100.8039 0001007 111.9514 343.7951 15.73237509  1300,6727.788000000001,91.531,350.331,348.976,0.0
53721.0,STARLINK-4707,PAYLOAD,2022-10-10 06:00:00,15.73164787,0.000107,53.2142,99.152,115.4284,69.2719,-0.00034615,-0.00048844,0.0,0 STARLINK-4707,1 53721U 22107X   22283.25001157 -.00048844  00000-0 -34615-3 0  9990,2 53721  53.2142  99.1520 0001070 115.4284  69.2719 15.73164787  5644,6727.996,91.535,350.58,349.141,0.0
53721.0,STARLINK-4707,PAYLOAD,2022-10-10 14:00:01,15.73214641,0.0001176,53.2142,97.5028,115.581,158.0438,-0.00013953,-0.00020167,0.0,0 STARLINK-4707,1 53721U 22107X   22283.58334491 -.00020167  00000-0 -13953-3 0  9996,2 53721  53.2142  97.5028 0001176 115.5810 158.0438 15.73214641  5697,6727.853,91.532,350.51,348.927,0.0
53721.0,STARLINK-4707,PAYLOAD,2022-10-10 22:00:01,15.7328024,0.0001002,53.2153,95.855,115.9763,246.6496,-0.0035893,-0.00478351,0.0,0 STARLINK-4707,1 53721U 22107X   22283.91668981 -.00478351  00000-0 -35893-2 0  9995,2 53721  53.2153  95.8550 0001002 115.9763 246.6496 15.73280240  5741,6727.666,91.529,350.206,348.857,0.0
53721.0,STARLINK-4707,PAYLOAD,2022-10-11 06:00:00,15.7309102,0.0001215,53.2141,94.2033,109.3359,342.0708,0.00058263,0.00081563,0.0,0 STARLINK-4707,1 53721U 22107X   22284.25001157  .00081563  00000-0  58263-3 0  9999,2 53721  53.2141  94.2033 0001215 109.3359 342.0708 15.73091020  5801,6728.206,91.54,350.88800000000015,349.25300000000016,0.0
53721.0,STARLINK-4707,PAYLOAD,2022-10-11 14:00:01,15.73191485,0.0001484,53.217,92.5533,112.9341,67.2471,0.00016412,0.00022466,0.0,0 STARLINK-4707,1 53721U 22107X   22284.58334491  .00022466  00000-0  16412-3 0  9992,2 53721  53.2170  92.5533 0001484 112.9341  67.2471 15.73191485  1308,6727.919,91.534,350.783,348.786,0.0
53721.0,STARLINK-4707,PAYLOAD,2022-10-11 22:00:00,15.73208601,0.000112,53.2137,90.9065,92.0481,177.05599999999995,0.00032079,0.00044657,0.0,0 STARLINK-4707,1 53721U 22107X   22284.91667824  .00044657  00000-0  32079-3 0  9991,2 53721  53.2137  90.9065 0001120  92.0481 177.0560 15.73208601  1301,6727.871,91.533,350.48900000000015,348.982,0.0
53721.0,STARLINK-4707,PAYLOAD,2022-10-12 06:00:00,15.73202989,9.73e-05,53.2147,89.2546,100.6938,257.3134,0.0001022999999999,0.00013763,0.0,0 STARLINK-4707,1 53721U 22107X   22285.25001157  .00013763  00000-0  10230-3 0  9999,2 53721  53.2147  89.2546 0000973 100.6938 257.3134 15.73202989  5952,6727.887,91.533,350.406,349.097,0.0
53721.0,STARLINK-4707,PAYLOAD,2022-10-12 14:00:01,15.73206605,0.0001133,53.2159,87.6049,100.1762,346.7705,0.0002663,0.00036928,0.0,0 STARLINK-4707,1 53721U 22107X   22285.58334491  .00036928  00000-0  26630-3 0  9994,2 53721  53.2159  87.6049 0001133 100.1762 346.7705 15.73206605  1305,6727.876,91.533,350.504,348.97900000000016,0.0
53721.0,STARLINK-4707,PAYLOAD,2022-10-12 22:00:00,15.73220148,0.0001111,53.2167,85.95700000000002,90.2653,85.6386,-0.00016844,-0.00024211,0.0,0 STARLINK-4707,1 53721U 22107X   22285.91667824 -.00024211  00000-0 -16844-3 0  9990,2 53721  53.2167  85.9570 0001111  90.2653  85.6386 15.73220148  1300,6727.8380000000025,91.532,350.45,348.955,0.0
53721.0,STARLINK-4707,PAYLOAD,2022-10-13 06:00:00,15.73202978,0.0001103,53.2174,84.305,98.9546,165.8939,1.7199000000000006e-05,1.795e-05,0.0,0 STARLINK-4707,1 53721U 22107X   22286.25001157  .00001795  00000-0  17199-4 0  9994,2 53721  53.2174  84.3050 0001103  98.9546 165.8939 15.73202978  6111,6727.887,91.533,350.494,349.01,0.0
53721.0,STARLINK-4707,PAYLOAD,2022-10-13 14:00:01,15.732066199999998,0.0001485,53.2172,82.656,98.8008,254.9796,-2.3748e-05,-3.953e-05,0.0,0 STARLINK-4707,1 53721U 22107X   22286.58334491 -.00003953  00000-0 -23748-4 0  9997,2 53721  53.2172  82.6560 0001485  98.8008 254.9796 15.73206620  1306,6727.876,91.533,350.74,348.742,0.0
53721.0,STARLINK-4707,PAYLOAD,2022-10-13 22:00:00,15.73202521,0.0001448,53.2173,81.0077,94.2135,348.5024,2.9327e-05,3.498e-05,0.0,0 STARLINK-4707,1 53721U 22107X   22286.91667824  .00003498  00000-0  29327-4 0  9994,2 53721  53.2173  81.0077 0001448  94.2135 348.5024 15.73202521  1303,6727.888000000001,91.533,350.727,348.779,0.0
53721.0,STARLINK-4707,PAYLOAD,2022-10-14 14:00:01,15.73206816,0.0001049,53.2173,77.7075,84.6041,175.9796,-3.2128e-05,-5.127e-05,0.0,0 STARLINK-4707,1 53721U 22107X   22287.58334491 -.00005127  00000-0 -32128-4 0  9995,2 53721  53.2173  77.7075 0001049  84.6041 175.9796 15.73206816  1308,6727.876,91.533,350.446,349.035,0.0
53721.0,STARLINK-4707,PAYLOAD,2022-10-14 16:00:00,15.73204446,0.0001057,53.2174,77.2956,82.5065,290.3113,-1.9232e-06,-8.89e-06,0.0,0 STARLINK-4707,1 53721U 22107X   22287.66667824 -.00000889  00000-0 -19232-5 0  9995,2 53721  53.2174  77.2956 0001057  82.5065 290.3113 15.73204446  6334,6727.882,91.533,350.459,349.036,0.0
53721.0,STARLINK-4707,PAYLOAD,2022-10-14 22:00:00,15.73203707,9.93e-05,53.2171,76.0591,78.9217,270.5964,1.7282e-05,1.807e-05,0.0,0 STARLINK-4707,1 53721U 22107X   22287.91667824  .00001807  00000-0  17282-4 0  9994,2 53721  53.2171  76.0591 0000993  78.9217 270.5964 15.73203707  1304,6727.885,91.533,350.418,349.082,0.0
